{
  "links" : {
    "next" : "https://api.nasa.gov/neo/rest/v1/feed?start_date=2009-09-23&end_date=2009-09-23&detailed=true&api_key=t0TVs3DtDT2H8Oy2Zy8m2eVrNsAVKAexjcZXUckd",
    "prev" : "https://api.nasa.gov/neo/rest/v1/feed?start_date=2009-09-21&end_date=2009-09-21&detailed=true&api_key=t0TVs3DtDT2H8Oy2Zy8m2eVrNsAVKAexjcZXUckd",
    "self" : "https://api.nasa.gov/neo/rest/v1/feed?start_date=2009-09-22&end_date=2009-09-22&detailed=true&api_key=t0TVs3DtDT2H8Oy2Zy8m2eVrNsAVKAexjcZXUckd"
  },
  "element_count" : 6,
  "near_earth_objects" : {
    "2009-09-22" : [ {
      "links" : {
        "self" : "https://api.nasa.gov/neo/rest/v1/neo/3703545?api_key=t0TVs3DtDT2H8Oy2Zy8m2eVrNsAVKAexjcZXUckd"
      },
      "neo_reference_id" : "3703545",
      "name" : "(2015 AJ44)",
      "nasa_jpl_url" : "http://ssd.jpl.nasa.gov/sbdb.cgi?sstr=3703545",
      "absolute_magnitude_h" : 22.3,
      "estimated_diameter" : {
        "kilometers" : {
          "estimated_diameter_min" : 0.0921626549,
          "estimated_diameter_max" : 0.2060819612
        },
        "meters" : {
          "estimated_diameter_min" : 92.1626548503,
          "estimated_diameter_max" : 206.0819612321
        },
        "miles" : {
          "estimated_diameter_min" : 0.057267201,
          "estimated_diameter_max" : 0.1280533543
        },
        "feet" : {
          "estimated_diameter_min" : 302.370924539,
          "estimated_diameter_max" : 676.1219416887
        }
      },
      "is_potentially_hazardous_asteroid" : false,
      "close_approach_data" : [ {
        "close_approach_date" : "2009-09-22",
        "epoch_date_close_approach" : 1253602800000,
        "relative_velocity" : {
          "kilometers_per_second" : "17.1496975667",
          "kilometers_per_hour" : "61738.9112401844",
          "miles_per_hour" : "38362.1584869913"
        },
        "miss_distance" : {
          "astronomical" : "0.4780127487",
          "lunar" : "185.9469604492",
          "kilometers" : "71509688",
          "miles" : "44434060"
        },
        "orbiting_body" : "Earth"
      } ],
      "orbital_data" : {
        "orbit_id" : "15",
        "orbit_determination_date" : "2017-04-06 08:36:26",
        "orbit_uncertainty" : "3",
        "minimum_orbit_intersection" : ".0661538",
        "jupiter_tisserand_invariant" : "6.587",
        "epoch_osculation" : "2458000.5",
        "eccentricity" : ".476156751006149",
        "semi_major_axis" : ".8871785006474511",
        "inclination" : "6.321997456036145",
        "ascending_node_longitude" : "117.1002254173843",
        "orbital_period" : "305.2213719357146",
        "perihelion_distance" : ".464742468216654",
        "perihelion_argument" : "192.5492381725183",
        "aphelion_distance" : "1.309614533078248",
        "perihelion_time" : "2458131.003458268735",
        "mean_anomaly" : "206.0748515780878",
        "mean_motion" : "1.179471796869529",
        "equinox" : "J2000"
      }
    }, {
      "links" : {
        "self" : "https://api.nasa.gov/neo/rest/v1/neo/3760440?api_key=t0TVs3DtDT2H8Oy2Zy8m2eVrNsAVKAexjcZXUckd"
      },
      "neo_reference_id" : "3760440",
      "name" : "(2016 TL10)",
      "nasa_jpl_url" : "http://ssd.jpl.nasa.gov/sbdb.cgi?sstr=3760440",
      "absolute_magnitude_h" : 27.3,
      "estimated_diameter" : {
        "kilometers" : {
          "estimated_diameter_min" : 0.0092162655,
          "estimated_diameter_max" : 0.0206081961
        },
        "meters" : {
          "estimated_diameter_min" : 9.216265485,
          "estimated_diameter_max" : 20.6081961232
        },
        "miles" : {
          "estimated_diameter_min" : 0.0057267201,
          "estimated_diameter_max" : 0.0128053354
        },
        "feet" : {
          "estimated_diameter_min" : 30.2370924539,
          "estimated_diameter_max" : 67.6121941689
        }
      },
      "is_potentially_hazardous_asteroid" : false,
      "close_approach_data" : [ {
        "close_approach_date" : "2009-09-22",
        "epoch_date_close_approach" : 1253602800000,
        "relative_velocity" : {
          "kilometers_per_second" : "9.3060227792",
          "kilometers_per_hour" : "33501.682005023",
          "miles_per_hour" : "20816.6423547322"
        },
        "miss_distance" : {
          "astronomical" : "0.1397519547",
          "lunar" : "54.3635101318",
          "kilometers" : "20906596",
          "miles" : "12990756"
        },
        "orbiting_body" : "Earth"
      } ],
      "orbital_data" : {
        "orbit_id" : "2",
        "orbit_determination_date" : "2017-04-06 08:23:21",
        "orbit_uncertainty" : "6",
        "minimum_orbit_intersection" : ".0237972",
        "jupiter_tisserand_invariant" : "6.519",
        "epoch_osculation" : "2458000.5",
        "eccentricity" : ".1688202364409825",
        "semi_major_axis" : ".9130321788904415",
        "inclination" : "6.740985068428607",
        "ascending_node_longitude" : "191.1574783654488",
        "orbital_period" : "318.6600008614625",
        "perihelion_distance" : ".7588938705719317",
        "perihelion_argument" : "31.51910234023218",
        "aphelion_distance" : "1.067170487208951",
        "perihelion_time" : "2457863.206929688902",
        "mean_anomaly" : "155.1042025305305",
        "mean_motion" : "1.129730744451074",
        "equinox" : "J2000"
      }
    }, {
      "links" : {
        "self" : "https://api.nasa.gov/neo/rest/v1/neo/3768616?api_key=t0TVs3DtDT2H8Oy2Zy8m2eVrNsAVKAexjcZXUckd"
      },
      "neo_reference_id" : "3768616",
      "name" : "(2017 CO1)",
      "nasa_jpl_url" : "http://ssd.jpl.nasa.gov/sbdb.cgi?sstr=3768616",
      "absolute_magnitude_h" : 23.4,
      "estimated_diameter" : {
        "kilometers" : {
          "estimated_diameter_min" : 0.0555334912,
          "estimated_diameter_max" : 0.1241766613
        },
        "meters" : {
          "estimated_diameter_min" : 55.5334911581,
          "estimated_diameter_max" : 124.1766612574
        },
        "miles" : {
          "estimated_diameter_min" : 0.0345069009,
          "estimated_diameter_max" : 0.0771597762
        },
        "feet" : {
          "estimated_diameter_min" : 182.1964991311,
          "estimated_diameter_max" : 407.4037573197
        }
      },
      "is_potentially_hazardous_asteroid" : false,
      "close_approach_data" : [ {
        "close_approach_date" : "2009-09-22",
        "epoch_date_close_approach" : 1253602800000,
        "relative_velocity" : {
          "kilometers_per_second" : "10.4378842076",
          "kilometers_per_hour" : "37576.3831474518",
          "miles_per_hour" : "23348.5031840375"
        },
        "miss_distance" : {
          "astronomical" : "0.2743196148",
          "lunar" : "106.7103347778",
          "kilometers" : "41037632",
          "miles" : "25499602"
        },
        "orbiting_body" : "Earth"
      } ],
      "orbital_data" : {
        "orbit_id" : "7",
        "orbit_determination_date" : "2017-04-06 08:20:15",
        "orbit_uncertainty" : "7",
        "minimum_orbit_intersection" : ".0103386",
        "jupiter_tisserand_invariant" : "5.514",
        "epoch_osculation" : "2458000.5",
        "eccentricity" : ".3810536391348056",
        "semi_major_axis" : "1.117305433403069",
        "inclination" : ".8984182014991869",
        "ascending_node_longitude" : "255.8591409994157",
        "orbital_period" : "431.376311781204",
        "perihelion_distance" : ".6915521319797385",
        "perihelion_argument" : "139.5814005632137",
        "aphelion_distance" : "1.5430587348264",
        "perihelion_time" : "2458144.480265524282",
        "mean_anomaly" : "239.8429719640434",
        "mean_motion" : ".8345381750646373",
        "equinox" : "J2000"
      }
    } ]
  }
}